0 FENGYUN 1C DEB
1 38501U 99025ESL 13281.88852219  .00006224  00000-0  16629-2 0   306
2 38501 097.3714 306.0640 0078783 327.9068 031.7365 14.46790941247235
0 FENGYUN 1C DEB
1 38501U 99025ESL 13287.28278927  .00007012  00000-0  18487-2 0   326
2 38501 097.3358 310.7025 0088917 309.4034 050.1180 14.46879123248013
0 FENGYUN 1C DEB
1 38501U 99025ESL 13288.32007723  .00007329  00000-0  19480-2 0   332
2 38501 097.3749 311.6671 0080604 306.9686 052.4623 14.46899677248163
0 FENGYUN 1C DEB
1 38501U 99025ESL 13289.84145147  .00008031  00000-0  21473-2 0   340
2 38501 097.3893 313.0147 0072959 301.1221 058.3914 14.46932906248388
0 FENGYUN 1C DEB
1 38501U 99025ESL 13290.87871671  .00008132  00000-0  21756-2 0   350
2 38501 097.3928 313.9260 0071896 298.1377 061.2727 14.46951575248533
0 FENGYUN 1C DEB
1 38501U 99025ESL 13291.29362422  .00008258  00000-0  21929-2 0   368
2 38501 097.3715 314.2795 0079396 303.0639 056.2304 14.46961302248594
0 FENGYUN 1C DEB
1 38501U 99025ESL 13291.84684616  .00008411  00000-0  22420-2 0   370
2 38501 097.3824 314.7720 0075130 299.1849 060.2568 14.46973592248678
0 FENGYUN 1C DEB
1 38501U 99025ESL 13293.29898852  .00009928  00000-0  26318-2 0   385
2 38501 097.3767 316.0125 0078971 289.9274 069.6131 14.47017469248888
